{
  "type": "FeatureCollection",
  "features": [
    {
      "type": "Feature",
      "properties": {
        "norad_id": 66523,
        "name": "STARLINK-35969",
        "group": "last-30-days",
        "lat": 6.256468058323581,
        "lon": -81.94689920807123,
        "alt_km": 343.7671031449545,
        "timestamp": "2025-12-04T03:47:53.336260+00:00",
        "meta_object_name": "STARLINK-35969",
        "meta_object_id": "2025-265H",
        "meta_epoch": "2025-12-03T20:00:01.999008",
        "meta_mean_motion": 15.75185806,
        "meta_eccentricity": 8.68e-05,
        "meta_inclination": 42.9998,
        "meta_ra_of_asc_node": 106.7815,
        "meta_arg_of_pericenter": 272.6807,
        "meta_mean_anomaly": 213.5153,
        "meta_ephemeris_type": 0,
        "meta_classification_type": "U",
        "meta_norad_cat_id": 66523,
        "meta_element_set_no": 999,
        "meta_rev_at_epoch": 356,
        "meta_bstar": -0.0020989,
        "meta_mean_motion_dot": -0.00313188,
        "meta_mean_motion_ddot": 0,
        "tle_line1": "1 66523U 25265H   25337.83335647 -.00313188  00000+0 -20989-2 0  9996",
        "tle_line2": "2 66523  42.9998 106.7815 0000868 272.6807 213.5153 15.75185806  3567"
      },
      "geometry": {
        "type": "Point",
        "coordinates": [
          -81.94689920807123,
          6.256468058323581
        ]
      }
    },
    {
      "type": "Feature",
      "properties": {
        "norad_id": 66524,
        "name": "STARLINK-35687",
        "group": "last-30-days",
        "lat": 4.955462563686325,
        "lon": -80.53430017533678,
        "alt_km": 344.10161752775093,
        "timestamp": "2025-12-04T03:47:53.336270+00:00",
        "meta_object_name": "STARLINK-35687",
        "meta_object_id": "2025-265J",
        "meta_epoch": "2025-12-03T20:00:01.999008",
        "meta_mean_motion": 15.75195911,
        "meta_eccentricity": 0.0001385,
        "meta_inclination": 42.9997,
        "meta_ra_of_asc_node": 106.7765,
        "meta_arg_of_pericenter": 278.103,
        "meta_mean_anomaly": 210.0144,
        "meta_ephemeris_type": 0,
        "meta_classification_type": "U",
        "meta_norad_cat_id": 66524,
        "meta_element_set_no": 999,
        "meta_rev_at_epoch": 356,
        "meta_bstar": -0.0022557,
        "meta_mean_motion_dot": -0.00335844,
        "meta_mean_motion_ddot": 0,
        "tle_line1": "1 66524U 25265J   25337.83335647 -.00335844  00000+0 -22557-2 0  9993",
        "tle_line2": "2 66524  42.9997 106.7765 0001385 278.1030 210.0144 15.75195911  3565"
      },
      "geometry": {
        "type": "Point",
        "coordinates": [
          -80.53430017533678,
          4.955462563686325
        ]
      }
    },
    {
      "type": "Feature",
      "properties": {
        "norad_id": 66525,
        "name": "STARLINK-35975",
        "group": "last-30-days",
        "lat": 3.655624461849173,
        "lon": -79.13134039147404,
        "alt_km": 343.99836923225575,
        "timestamp": "2025-12-04T03:47:53.336280+00:00",
        "meta_object_name": "STARLINK-35975",
        "meta_object_id": "2025-265K",
        "meta_epoch": "2025-12-03T20:00:01.999008",
        "meta_mean_motion": 15.75182389,
        "meta_eccentricity": 0.0001274,
        "meta_inclination": 42.9997,
        "meta_ra_of_asc_node": 106.7719,
        "meta_arg_of_pericenter": 263.9629,
        "meta_mean_anomaly": 226.0719,
        "meta_ephemeris_type": 0,
        "meta_classification_type": "U",
        "meta_norad_cat_id": 66525,
        "meta_element_set_no": 999,
        "meta_rev_at_epoch": 356,
        "meta_bstar": -0.0020795,
        "meta_mean_motion_dot": -0.00310383,
        "meta_mean_motion_ddot": 0,
        "tle_line1": "1 66525U 25265K   25337.83335647 -.00310383  00000+0 -20795-2 0  9997",
        "tle_line2": "2 66525  42.9997 106.7719 0001274 263.9629 226.0719 15.75182389  3568"
      },
      "geometry": {
        "type": "Point",
        "coordinates": [
          -79.13134039147404,
          3.655624461849173
        ]
      }
    },
    {
      "type": "Feature",
      "properties": {
        "norad_id": 66526,
        "name": "STARLINK-35932",
        "group": "last-30-days",
        "lat": 2.3534582886826136,
        "lon": -77.73236624782236,
        "alt_km": 344.3773097938565,
        "timestamp": "2025-12-04T03:47:53.336289+00:00",
        "meta_object_name": "STARLINK-35932",
        "meta_object_id": "2025-265L",
        "meta_epoch": "2025-12-03T20:00:01.999008",
        "meta_mean_motion": 15.75227357,
        "meta_eccentricity": 0.0001786,
        "meta_inclination": 42.9998,
        "meta_ra_of_asc_node": 106.7673,
        "meta_arg_of_pericenter": 273.4262,
        "meta_mean_anomaly": 218.5065,
        "meta_ephemeris_type": 0,
        "meta_classification_type": "U",
        "meta_norad_cat_id": 66526,
        "meta_element_set_no": 999,
        "meta_rev_at_epoch": 345,
        "meta_bstar": -0.0026239,
        "meta_mean_motion_dot": -0.00388752,
        "meta_mean_motion_ddot": 0,
        "tle_line1": "1 66526U 25265L   25337.83335647 -.00388752  00000+0 -26239-2 0  9992",
        "tle_line2": "2 66526  42.9998 106.7673 0001786 273.4262 218.5065 15.75227357  3459"
      },
      "geometry": {
        "type": "Point",
        "coordinates": [
          -77.73236624782236,
          2.3534582886826136
        ]
      }
    },
    {
      "type": "Feature",
      "properties": {
        "norad_id": 66527,
        "name": "STARLINK-35935",
        "group": "last-30-days",
        "lat": 1.05412109173496,
        "lon": -76.34047551077057,
        "alt_km": 344.4144268089094,
        "timestamp": "2025-12-04T03:47:53.336299+00:00",
        "meta_object_name": "STARLINK-35935",
        "meta_object_id": "2025-265M",
        "meta_epoch": "2025-12-03T20:00:01.999008",
        "meta_mean_motion": 15.75318812,
        "meta_eccentricity": 5.85e-05,
        "meta_inclination": 42.9997,
        "meta_ra_of_asc_node": 106.763,
        "meta_arg_of_pericenter": 303.9761,
        "meta_mean_anomaly": 189.7519,
        "meta_ephemeris_type": 0,
        "meta_classification_type": "U",
        "meta_norad_cat_id": 66527,
        "meta_element_set_no": 999,
        "meta_rev_at_epoch": 356,
        "meta_bstar": -0.0028031,
        "meta_mean_motion_dot": -0.00415527,
        "meta_mean_motion_ddot": 0,
        "tle_line1": "1 66527U 25265M   25337.83335647 -.00415527  00000+0 -28031-2 0  9996",
        "tle_line2": "2 66527  42.9997 106.7630 0000585 303.9761 189.7519 15.75318812  3563"
      },
      "geometry": {
        "type": "Point",
        "coordinates": [
          -76.34047551077057,
          1.05412109173496
        ]
      }
    },
    {
      "type": "Feature",
      "properties": {
        "norad_id": 66528,
        "name": "STARLINK-35928",
        "group": "last-30-days",
        "lat": -0.2636425868844762,
        "lon": -74.93104219702487,
        "alt_km": 344.3652188232454,
        "timestamp": "2025-12-04T03:47:53.336309+00:00",
        "meta_object_name": "STARLINK-35928",
        "meta_object_id": "2025-265N",
        "meta_epoch": "2025-12-03T20:00:01.999008",
        "meta_mean_motion": 15.75212737,
        "meta_eccentricity": 0.000126,
        "meta_inclination": 42.9998,
        "meta_ra_of_asc_node": 106.7578,
        "meta_arg_of_pericenter": 259.1857,
        "meta_mean_anomaly": 236.5849,
        "meta_ephemeris_type": 0,
        "meta_classification_type": "U",
        "meta_norad_cat_id": 66528,
        "meta_element_set_no": 999,
        "meta_rev_at_epoch": 356,
        "meta_bstar": -0.0024092,
        "meta_mean_motion_dot": -0.00357986,
        "meta_mean_motion_ddot": 0,
        "tle_line1": "1 66528U 25265N   25337.83335647 -.00357986  00000+0 -24092-2 0  9994",
        "tle_line2": "2 66528  42.9998 106.7578 0001260 259.1857 236.5849 15.75212737  3561"
      },
      "geometry": {
        "type": "Point",
        "coordinates": [
          -74.93104219702487,
          -0.2636425868844762
        ]
      }
    },
    {
      "type": "Feature",
      "properties": {
        "norad_id": 66529,
        "name": "STARLINK-35933",
        "group": "last-30-days",
        "lat": -1.5589067458260448,
        "lon": -73.54527607539241,
        "alt_km": 344.64955458992426,
        "timestamp": "2025-12-04T03:47:53.336323+00:00",
        "meta_object_name": "STARLINK-35933",
        "meta_object_id": "2025-265P",
        "meta_epoch": "2025-12-03T20:00:01.999008",
        "meta_mean_motion": 15.75150885,
        "meta_eccentricity": 0.0001402,
        "meta_inclination": 42.9997,
        "meta_ra_of_asc_node": 106.7528,
        "meta_arg_of_pericenter": 268.4384,
        "meta_mean_anomaly": 229.2703,
        "meta_ephemeris_type": 0,
        "meta_classification_type": "U",
        "meta_norad_cat_id": 66529,
        "meta_element_set_no": 999,
        "meta_rev_at_epoch": 356,
        "meta_bstar": -0.0017949,
        "meta_mean_motion_dot": -0.00268897,
        "meta_mean_motion_ddot": 0,
        "tle_line1": "1 66529U 25265P   25337.83335647 -.00268897  00000+0 -17949-2 0  9990",
        "tle_line2": "2 66529  42.9997 106.7528 0001402 268.4384 229.2703 15.75150885  3565"
      },
      "geometry": {
        "type": "Point",
        "coordinates": [
          -73.54527607539241,
          -1.5589067458260448
        ]
      }
    }
  ]
}